0 DELTA 1 DEB
1 27720U 65004E   13295.11680168  .00000038  00000-0  69981-4 0  4560
2 27720 096.4917 178.3285 1177416 221.3142 127.1081 12.08511489495931
